NORAD_CAT_ID,OBJECT_NAME,OBJECT_TYPE,EPOCH,MEAN_MOTION,ECCENTRICITY,INCLINATION,RA_OF_ASC_NODE,ARG_OF_PERICENTER,MEAN_ANOMALY,BSTAR,MEAN_MOTION_DOT,MEAN_MOTION_DDOT,TLE_LINE0,TLE_LINE1,TLE_LINE2,SEMIMAJOR_AXIS,PERIOD,APOGEE,PERIGEE,DECAYED
55753.0,STARLINK-5617,PAYLOAD,2023-05-27 19:45:44,14.9833149,0.0002982,70.0005,288.3298,266.4563,93.6255,-9.7533e-06,-2.09e-06,0.0,0 STARLINK-5617,1 55753U 23028N   23147.82342827 -.00000209  00000-0 -97533-5 0  9998,2 55753  70.0005 288.3298 0002982 266.4563  93.6255 14.98331490 13727,6950.188,96.107,574.126,569.981,0.0
55753.0,STARLINK-5617,PAYLOAD,2023-05-28 02:10:16,14.98328972,0.000299,70.0006,287.6566,265.885,94.1967,-1.3505e-05,-2.54e-06,0.0,0 STARLINK-5617,1 55753U 23028N   23148.09046970 -.00000254  00000-0 -13505-4 0  9994,2 55753  70.0006 287.6566 0002990 265.8850  94.1967 14.98328972 13760,6950.196,96.107,574.139,569.983,0.0
55753.0,STARLINK-5617,PAYLOAD,2023-05-28 18:11:36,14.98332065,0.0003061,70.0003,285.9729,267.5679,92.513,1.6512e-05,1.04e-06,0.0,0 STARLINK-5617,1 55753U 23028N   23148.75806650  .00000104  00000-0  16512-4 0  9999,2 55753  70.0003 285.9729 0003061 267.5679  92.5130 14.98332065 13860,6950.187,96.107,574.179,569.924,0.0
55753.0,STARLINK-5617,PAYLOAD,2023-05-29 02:12:17,14.98326612,0.000303,70.0004,285.1312,269.6586,90.4225,9.7774e-05,1.074e-05,0.0,0 STARLINK-5617,1 55753U 23028N   23149.09186788  .00001074  00000-0  97774-4 0  9996,2 55753  70.0004 285.1312 0003030 269.6586  90.4225 14.98326612 13916,6950.203,96.107,574.174,569.962,0.0
55753.0,STARLINK-5617,PAYLOAD,2023-05-29 13:25:13,14.98330891,0.0003084,70.0003,283.9529,269.2189,90.8617,1.1838e-05,4.8e-07,0.0,0 STARLINK-5617,1 55753U 23028N   23149.55918644  .00000048  00000-0  11838-4 0  9998,2 55753  70.0003 283.9529 0003084 269.2189  90.8617 14.98330891 13985,6950.19,96.107,574.199,569.912,0.0
55753.0,STARLINK-5617,PAYLOAD,2023-05-29 18:13:37,14.9833171,0.0003074,70.0004,283.448,269.2343,90.8464,2.0226e-05,1.48e-06,0.0,0 STARLINK-5617,1 55753U 23028N   23149.75946546  .00000148  00000-0  20226-4 0  9994,2 55753  70.0004 283.4480 0003074 269.2343  90.8464 14.98331710 14014,6950.188,96.107,574.189,569.916,0.0
55753.0,STARLINK-5617,PAYLOAD,2023-05-30 02:14:18,14.9833133,0.0003072,70.0004,282.6062,270.2136,89.8671,2.0995e-05,1.58e-06,0.0,0 STARLINK-5617,1 55753U 23028N   23150.09326527  .00000158  00000-0  20995-4 0  9998,2 55753  70.0004 282.6062 0003072 270.2136  89.8671 14.98331330 14062,6950.189,96.107,574.189,569.919,0.0
55753.0,STARLINK-5617,PAYLOAD,2023-05-30 11:51:06,14.98331194,0.0003099,70.0002,281.5965,270.0581,90.0222,1.9881e-05,1.44e-06,0.0,0 STARLINK-5617,1 55753U 23028N   23150.49382482  .00000144  00000-0  19881-4 0  9991,2 55753  70.0002 281.5965 0003099 270.0581  90.0222 14.98331194 14122,6950.189,96.107,574.208,569.9,0.0
55753.0,STARLINK-5617,PAYLOAD,2023-05-30 16:39:30,14.98331555,0.0003127,70.0003,281.0915,270.0508,90.0293,6.0645e-06,-2.1e-07,0.0,0 STARLINK-5617,1 55753U 23028N   23150.69410472 -.00000021  00000-0  60645-5 0  9994,2 55753  70.0003 281.0915 0003127 270.0508  90.0293 14.98331555 14156,6950.188,96.107,574.226,569.88,0.0
55753.0,STARLINK-5617,PAYLOAD,2023-05-31 02:16:18,14.983328,0.0003122,70.0003,280.0809,270.5099,89.5702,6.238e-06,-1.9e-07,0.0,0 STARLINK-5617,1 55753U 23028N   23151.09466319 -.00000019  00000-0  62380-5 0  9995,2 55753  70.0003 280.0809 0003122 270.5099  89.5702 14.98332800 14211,6950.184,96.107,574.219,569.879,0.0
55753.0,STARLINK-5617,PAYLOAD,2023-05-31 13:29:15,14.98329816,0.0003132,70.0004,278.9027,270.0162,90.0638,2.5836e-06,-6.2e-07,0.0,0 STARLINK-5617,1 55753U 23028N   23151.56198476 -.00000062  00000-0  25836-5 0  9996,2 55753  70.0004 278.9027 0003132 270.0162  90.0638 14.98329816 14282,6950.193,96.107,574.235,569.882,0.0
55753.0,STARLINK-5617,PAYLOAD,2023-05-31 18:17:39,14.98332614,0.000312,70.0004,278.3974,269.4851,90.5951,1.4071e-05,7.5e-07,0.0,0 STARLINK-5617,1 55753U 23028N   23151.76226234  .00000075  00000-0  14071-4 0  9993,2 55753  70.0004 278.3974 0003120 269.4851  90.5951 14.98332614 14318,6950.185,96.107,574.218,569.881,0.0
55753.0,STARLINK-5617,PAYLOAD,2023-06-01 02:18:20,14.98329342,0.0003102,70.0005,277.556,269.8436,90.2368,-1.7912e-05,-3.07e-06,0.0,0 STARLINK-5617,1 55753U 23028N   23152.09606502 -.00000307  00000-0 -17912-4 0  9997,2 55753  70.0005 277.5560 0003102 269.8436  90.2368 14.98329342 14362,6950.195,96.107,574.216,569.904,0.0
55753.0,STARLINK-5617,PAYLOAD,2023-06-01 10:19:00,14.98329363,0.0003113,70.0004,276.7143,269.5738,90.5064,-1.2337e-05,-2.4e-06,0.0,0 STARLINK-5617,1 55753U 23028N   23152.42986476 -.00000240  00000-0 -12337-4 0  9997,2 55753  70.0004 276.7143 0003113 269.5738  90.5064 14.98329363 14418,6950.195,96.107,574.223,569.896,0.0
55753.0,STARLINK-5617,PAYLOAD,2023-06-02 10:21:01,14.98321407,0.000315,70.0,274.1898,269.1222,90.9576,0.00012658,1.417e-05,0.0,0 STARLINK-5617,1 55753U 23028N   23153.43126599  .00001417  00000-0  12658-3 0  9991,2 55753  70.0000 274.1898 0003150 269.1222  90.9576 14.98321407 14567,6950.219,96.108,574.274,569.895,0.0
55753.0,STARLINK-5617,PAYLOAD,2023-06-02 13:33:17,14.98332025,0.0003042,70.0002,273.8535,271.6248,88.4563,-6.5236e-05,-8.71e-06,0.0,0 STARLINK-5617,1 55753U 23028N   23153.56478444 -.00000871  00000-0 -65236-4 0  9990,2 55753  70.0002 273.8535 0003042 271.6248  88.4563 14.98332025 14587,6950.187,96.107,574.166,569.937,0.0
55753.0,STARLINK-5617,PAYLOAD,2023-06-02 18:21:41,14.98328099,0.0003154,70.0001,273.3482,269.1551,90.9247,-1.9658e-05,-3.28e-06,0.0,0 STARLINK-5617,1 55753U 23028N   23153.76506604 -.00000328  00000-0 -19658-4 0  9996,2 55753  70.0001 273.3482 0003154 269.1551  90.9247 14.98328099 14612,6950.199,96.107,574.256,569.872,0.0
55753.0,STARLINK-5617,PAYLOAD,2023-06-03 10:23:02,14.98328429,0.000315,70.0,271.6651,268.2819,91.7979,-1.5775e-06,-1.12e-06,0.0,0 STARLINK-5617,1 55753U 23028N   23154.43266628 -.00000112  00000-0 -15775-5 0  9998,2 55753  70.0000 271.6651 0003150 268.2819  91.7979 14.98328429 14712,6950.198,96.107,574.252,569.873,0.0
55753.0,STARLINK-5617,PAYLOAD,2023-06-03 13:35:18,14.98328222,0.0003155,70.0001,271.3285,268.2861,91.7936,-3.0767e-06,-1.3e-06,0.0,0 STARLINK-5617,1 55753U 23028N   23154.56618656 -.00000130  00000-0 -30767-5 0  9992,2 55753  70.0001 271.3285 0003155 268.2861  91.7936 14.98328222 14731,6950.198,96.107,574.256,569.871,0.0
55753.0,STARLINK-5617,PAYLOAD,2023-06-03 16:47:34,14.98330685,0.0003169,70.0001,270.9918,270.552,89.5276,6.5205e-06,-1.5e-07,0.0,0 STARLINK-5617,1 55753U 23028N   23154.69970491 -.00000015  00000-0  65205-5 0  9990,2 55753  70.0001 270.9918 0003169 270.5520  89.5276 14.98330685 14752,6950.191,96.107,574.258,569.853,0.0
55753.0,STARLINK-5617,PAYLOAD,2023-06-04 10:25:03,14.98330022,0.000321,70.0001,269.1403,269.9614,90.1178,5.7698e-05,5.95e-06,0.0,0 STARLINK-5617,1 55753U 23028N   23155.43406353  .00000595  00000-0  57698-4 0  9992,2 55753  70.0001 269.1403 0003210 269.9614  90.1178 14.98330022 14860,6950.193,96.107,574.289,569.827,0.0
55753.0,STARLINK-5617,PAYLOAD,2023-06-04 12:01:11,14.98330165,0.000321,70.0001,268.972,269.9688,90.1103,5.8333e-05,6.03e-06,0.0,0 STARLINK-5617,1 55753U 23028N   23155.50082337  .00000603  00000-0  58333-4 0  9999,2 55753  70.0001 268.9720 0003210 269.9688  90.1103 14.98330165 14877,6950.192,96.107,574.288,569.826,0.0
55753.0,STARLINK-5617,PAYLOAD,2023-06-04 18:25:43,14.9833373,0.0003173,70.0002,268.2986,269.5433,90.5362,9.5466e-05,1.046e-05,0.0,0 STARLINK-5617,1 55753U 23028N   23155.76785985  .00001046  00000-0  95466-4 0  9996,2 55753  70.0002 268.2986 0003173 269.5433  90.5362 14.98333730 14914,6950.181,96.107,574.252,569.841,0.0
55753.0,STARLINK-5617,PAYLOAD,2023-06-05 10:27:04,14.98325292,0.0003131,70.0,266.6145,272.8975,87.1825,-1.3016e-05,-2.48e-06,0.0,0 STARLINK-5617,1 55753U 23028N   23156.43546881 -.00000248  00000-0 -13016-4 0  9997,2 55753  70.0000 266.6145 0003131 272.8975  87.1825 14.98325292 15015,6950.207,96.107,574.249,569.896,0.0
55753.0,STARLINK-5617,PAYLOAD,2023-06-05 13:39:20,14.98327666,0.000314,70.0001,266.2781,271.3574,88.7225,-1.0763e-05,-2.21e-06,0.0,0 STARLINK-5617,1 55753U 23028N   23156.56898736 -.00000221  00000-0 -10763-4 0  9997,2 55753  70.0001 266.2781 0003140 271.3574  88.7225 14.98327666 15037,6950.2,96.107,574.247,569.883,0.0
55753.0,STARLINK-5617,PAYLOAD,2023-06-05 16:51:36,14.98326602,0.0003173,70.0002,265.9423,270.3609,89.7186,-1.8572e-05,-3.15e-06,0.0,0 STARLINK-5617,1 55753U 23028N   23156.70250850 -.00000315  00000-0 -18572-4 0  9992,2 55753  70.0002 265.9423 0003173 270.3609  89.7186 14.98326602 15059,6950.203,96.107,574.274,569.863,0.0
55753.0,STARLINK-5617,PAYLOAD,2023-06-06 08:52:56,14.98332609,0.0003239,70.0,264.2581,271.0452,89.0336,2.2937e-05,1.81e-06,0.0,0 STARLINK-5617,1 55753U 23028N   23157.37010329  .00000181  00000-0  22937-4 0  9990,2 55753  70.0000 264.2581 0003239 271.0452  89.0336 14.98332609 15156,6950.185,96.107,574.301,569.799,0.0
55753.0,STARLINK-5617,PAYLOAD,2023-06-06 12:05:13,14.98332397,0.0003275,69.9999,263.9217,271.0938,88.9845,2.0396e-05,1.5e-06,0.0,0 STARLINK-5617,1 55753U 23028N   23157.50362327  .00000150  00000-0  20396-4 0  9996,2 55753  69.9999 263.9217 0003275 271.0938  88.9845 14.98332397 15170,6950.185,96.107,574.327,569.774,0.0
55753.0,STARLINK-5617,PAYLOAD,2023-06-06 16:53:36,14.98336435,0.0003334,70.0001,263.4177,272.9478,87.13,3.0034e-05,2.65e-06,0.0,0 STARLINK-5617,1 55753U 23028N   23157.70390002  .00000265  00000-0  30034-4 0  9996,2 55753  70.0001 263.4177 0003334 272.9478  87.1300 14.98336435 15200,6950.173,96.107,574.355,569.721,0.0
55753.0,STARLINK-5617,PAYLOAD,2023-06-07 08:54:57,14.98326533,0.0003352,70.0001,261.7341,272.0623,88.0152,6.1246e-05,6.38e-06,0.0,0 STARLINK-5617,1 55753U 23028N   23158.37150453  .00000638  00000-0  61246-4 0  9997,2 55753  70.0001 261.7341 0003352 272.0623  88.0152 14.98326533 15301,6950.204,96.107,574.398,569.739,0.0
